GPS BIIR-2  (PRN 13)    
1 24876U 97035A   21158.92799804  .00000091  00000-0  00000-0 0  9996
2 24876  55.4733 170.2829 0048040  53.5968 306.8893  2.00562753175142
GPS BIIR-4  (PRN 20)    
1 26360U 00025A   21159.24730463 -.00000051  00000-0  00000-0 0  9998
2 26360  53.7671  94.3691 0060469 176.1753 109.5098  2.00790279154463
GPS BIIR-5  (PRN 28)    
1 26407U 00040A   21159.53870176 -.00000059  00000-0  00000-0 0  9993
2 26407  55.7286 288.0945 0177115 282.5551  89.7329  2.00556980153158
GPS BIIR-8  (PRN 16)    
1 27663U 03005A   21159.00108133 -.00000064  00000-0  00000-0 0  9997
2 27663  55.7808 287.9112 0120611  38.0940  82.8315  2.00560009134506
GPS BIIR-9  (PRN 21)    
1 27704U 03010A   21159.06357870 -.00000095  00000-0  00000-0 0  9993
2 27704  54.8508  38.4988 0242800 295.1274  83.9594  2.00563224133300
GPS BIIR-10 (PRN 22)    
1 28129U 03058A   21159.11292161 -.00000047  00000-0  00000-0 0  9991
2 28129  53.5785  97.0320 0072261 304.7741  54.5157  2.00546782127980
GPS BIIR-11 (PRN 19)    
1 28190U 04009A   21159.35978235 -.00000082  00000-0  00000-0 0  9994
2 28190  56.1871 348.7744 0090754 106.6778  69.8979  2.00568633126142
GPS BIIR-13 (PRN 02)    
1 28474U 04045A   21159.48204350 -.00000092  00000-0  00000-0 0  9994
2 28474  55.1854  38.4817 0204227 273.3229 266.5983  2.00562060121634
GPS BIIRM-1 (PRN 17)    
1 28874U 05038A   21159.32573767 -.00000082  00000-0  00000-0 0  9994
2 28874  56.2717 346.1893 0135514 270.2812 265.0420  2.00571838115037
GPS BIIRM-2 (PRN 31)    
1 29486U 06042A   21159.20804539  .00000047  00000-0  00000-0 0  9991
2 29486  54.7710 224.1740 0098640  13.8803 347.8094  2.00548756107599
GPS BIIRM-3 (PRN 12)    
1 29601U 06052A   21157.65060595 -.00000073  00000-0  00000-0 0  9994
2 29601  55.7775 286.8908 0081786  69.2965 291.5624  2.00557270106570
GPS BIIRM-4 (PRN 15)    
1 32260U 07047A   21158.95434240  .00000071  00000-0  00000-0 0  9997
2 32260  53.2340 156.0621 0130275  55.9345 305.3097  2.00568802100001
GPS BIIRM-5 (PRN 29)    
1 32384U 07062A   21159.24790564 -.00000082  00000-0  00000-0 0  9991
2 32384  56.3780 346.9077 0017167 128.4030 211.3879  2.00569649 98703
GPS BIIRM-6 (PRN 07)    
1 32711U 08012A   21158.86598722  .00000046  00000-0  00000-0 0  9999
2 32711  54.5241 223.2079 0151786 227.1953 131.6011  2.00553889 96940
GPS BIIRM-8 (PRN 05)    
1 35752U 09043A   21156.59366487 -.00000029  00000-0  00000-0 0  9993
2 35752  54.8019 100.7369 0059380  50.3498 120.7508  2.00538710 86509
GPS BIIF-1  (PRN 25)    
1 36585U 10022A   21159.61390994 -.00000052  00000-0  00000+0 0  9998
2 36585  55.0513 282.5944 0096895  54.8898 254.6582  2.00570175 80794
GPS BIIF-2  (PRN 01)    
1 37753U 11036A   21158.32110904 -.00000097  00000-0  00000-0 0  9990
2 37753  56.4084  43.3437 0107774  48.0265 133.2648  2.00563386 72457
GPS BIIF-3  (PRN 24)    
1 38833U 12053A   21157.05404959  .00000032  00000-0  00000-0 0  9993
2 38833  53.5734 218.7857 0109564  41.5461 319.3582  2.00556790 62595
GPS BIIF-4  (PRN 27)    
1 39166U 13023A   21158.41504648 -.00000083  00000-0  00000-0 0  9995
2 39166  55.9157 342.7421 0093142  34.8568 325.7679  2.00562926 59066
GPS BIIF-5  (PRN 30)    
1 39533U 14008A   21158.91471925  .00000043  00000-0  00000-0 0  9998
2 39533  53.6768 224.1793 0053554 203.6259 156.2088  2.00560746 52879
GPS BIIF-6  (PRN 06)    
1 39741U 14026A   21159.19436746 -.00000091  00000-0  00000-0 0  9996
2 39741  56.3773  42.8367 0023448 301.4578  58.3600  2.00552196 51734
GPS BIIF-7  (PRN 09)    
1 40105U 14045A   21159.27806680  .00000079  00000-0  00000-0 0  9995
2 40105  54.6274 161.7424 0016380 106.9503 253.2541  2.00552026 49273
GPS BIIF-8  (PRN 03)    
1 40294U 14068A   21159.15073221 -.00000034  00000-0  00000-0 0  9995
2 40294  55.5504 102.7535 0034040  46.2713 313.9727  2.00574197 48405
GPS BIIF-9  (PRN 26)    
1 40534U 15013A   21157.79722393 -.00000068  00000-0  00000-0 0  9999
2 40534  53.9593 280.2466 0058262  15.5906 344.5782  2.00575442 44997
GPS BIIF-10 (PRN 08)    
1 40730U 15033A   21158.95162161 -.00000084  00000-0  00000-0 0  9997
2 40730  55.4234 341.7272 0063515   1.1474 358.8814  2.00571693 43188
GPS BIIF-11 (PRN 10)    
1 41019U 15062A   21158.50091879 -.00000034  00000-0  00000-0 0  9993
2 41019  55.5432 102.6146 0067875 214.8017 144.7185  2.00563714 41011
GPS BIIF-12 (PRN 32)    
1 41328U 16007A   21158.59149346  .00000085  00000-0  00000-0 0  9993
2 41328  54.8547 162.3475 0051628 226.4777 133.1204  2.00562769 39023
GPS BIII-1  (PRN 04)    
1 43873U 18109A   21159.73208175  .00000080  00000-0  00000+0 0  9992
2 43873  55.0361 164.6426 0013266 202.4630 154.2250  2.00556177 18237
GPS BIII-2  (PRN 18)    
1 44506U 19056A   21159.32019182 -.00000092  00000-0  00000-0 0  9996
2 44506  55.4754  43.9674 0014448 174.4816 143.3567  2.00565777 13266
GPS BIII-3  (PRN 23)    
1 45854U 20041A   21158.95949910 -.00000037  00000-0  00000-0 0  9997
2 45854  55.2567 101.2461 0010943 159.3459 200.6629  2.00565924  7225
